LUCH 5V (SDCM/PRN 141)  
1 39727U 14023A   26116.95997187 -.00000276  00000+0  00000+0 0  9993
2 39727   5.0096  70.2468 0002258 339.3730 245.6891  1.00271811 43847
GPS BIIF-6  (PRN 06)    
1 39741U 14026A   26116.10890750 -.00000078  00000+0  00000+0 0  9997
2 39741  56.5221 333.5452 0038948 326.6709  33.1214  2.00564801 87495
COSMOS 2500 (755)       
1 40001U 14032A   26116.89009990 -.00000029  00000+0  00000+0 0  9995
2 40001  65.2618 315.4308 0005744 181.8754 178.1502  2.13105827 92366
GPS BIIF-7  (PRN 09)    
1 40105U 14045A   26117.19658757  .00000024  00000+0  00000+0 0  9993
2 40105  55.3206  90.4949 0031672 119.1316 241.1707  2.00554999 85052
GSAT0201 (GALILEO 5)    
1 40128U 14050A   26116.13529482 -.00000064  00000+0  00000+0 0  9994
2 40128  48.9332 275.5670 1666333 177.3572 183.6448  1.85519973 77352
GSAT0202 (GALILEO 6)    
1 40129U 14050B   26116.92999515 -.00000073  00000+0  00000+0 0  9990
2 40129  48.9493 274.6194 1667557 178.1198 182.5914  1.85520682 79531
IRNSS-1C                
1 40269U 14061A   26117.00950125 -.00000166  00000+0  00000+0 0  9994
2 40269   6.3873  89.9018 0021575 357.9703 213.5568  1.00269611 42179
GPS BIIF-8  (PRN 03)    
1 40294U 14068A   26117.07053014 -.00000103  00000+0  00000+0 0  9998
2 40294  56.9545  32.9243 0065294  68.8787 291.8193  2.00573025 84186
COSMOS 2501 (702K)      
1 40315U 14075A   26117.15145856 -.00000001  00000+0  00000+0 0  9992
2 40315  63.6140 192.1381 0021867 210.0421 149.8850  2.13101300 88769
GPS BIIF-9  (PRN 26)    
1 40534U 15013A   26116.70644662 -.00000036  00000+0  00000+0 0  9995
2 40534  53.1742 206.3067 0108883  39.9769 320.8462  2.00554396 80798
GSAT0203 (GALILEO 7)    
1 40544U 15017A   26111.90090206 -.00000083  00000+0  00000+0 0  9998
2 40544  56.8042 343.1309 0002546 315.4442  44.5780  1.70475713 68240
GSAT0204 (GALILEO 8)    
1 40545U 15017B   26115.08949468 -.00000090  00000+0  00000+0 0  9993
2 40545  56.8095 343.0621 0001552 296.0698  63.9535  1.70475480 31343
BEIDOU-3S IGSO-1S (C31) 
1 40549U 15019A   26112.98991377 -.00000171  00000+0  00000+0 0  9991
2 40549  49.2998 296.1212 0037208 189.9963 176.4804  1.00261100 40525
GPS BIIF-10 (PRN 08)    
1 40730U 15033A   26115.37018511 -.00000039  00000+0  00000+0 0  9998
2 40730  54.0255 269.2625 0115006  29.8840 330.7367  2.00558940 78932
BEIDOU-3S M2S (C58)     
1 40748U 15037A   26116.77619044 -.00000059  00000+0  00000+0 0  9996
2 40748  54.9169 303.8152 0007385 270.7316  89.1830  1.86231775 73166
BEIDOU-3S M1S (C57)     
1 40749U 15037B   26115.37922549 -.00000049  00000+0  00000+0 0  9998
2 40749  54.9149 303.8513 0004457  51.4305 308.6107  1.86254812 73146
GSAT0205 (GALILEO 9)    
1 40889U 15045A   26115.63255192 -.00000038  00000+0  00000+0 0  9992
2 40889  54.9613 223.1764 0005159 266.9978  92.9342  1.67410754 66085
